satname,norad_id,inclination_deg,eccentricity,mean_motion_rev_per_day,perigee_km,apogee_km,l1,l2
STARLINK-1212,45223,53.0556,0.0001427,15.06399209,546.2257346552469,548.2022298255797,1 45223U 20012AX  25260.64833863  .00000210  00000+0  32978-4 0  9992,2 45223  53.0556  64.0856 0001427  90.0071 270.1082 15.06399209309312
STARLINK-1215,45225,53.055,9.14e-05,15.06401936,546.5726480675994,547.8386006993369,1 45225U 20012AZ  25260.73671382  .00000317  00000+0  40166-4 0  9996,2 45225  53.0550  63.0333 0000914  97.6460 262.4633 15.06401936309285
STARLINK-1217,45226,53.0468,0.0001928,15.86347188,311.244106366561,313.82402913028454,1 45226U 20012BA  25261.25011574  .00345728  00000+0  13016-2 0  9996,2 45226  53.0468  13.4190 0001928 201.8051 160.2380 15.86347188  5941
STARLINK-1221,45227,53.0699,0.0004077,15.34951519,458.27615790235814,463.85284280574615,1 45227U 20012BB  25260.59005377  .00011818  00000+0  35412-3 0  9992,2 45227  53.0699   5.5575 0004077 169.1259 190.9832 15.34951519310067
STARLINK-1222,45228,53.0557,0.0001383,15.06399276,546.2560008824457,548.1715529073344,1 45228U 20012BC  25260.76988884  .00000706  00000+0  66277-4 0  9993,2 45228  53.0557  62.8841 0001383  92.2331 267.8816 15.06399276309224
STARLINK-1226,45229,53.0554,0.0001765,15.06422561,545.9201007693127,548.3647244019567,1 45229U 20012BD  25260.73301149  .00003857  00000+0  27754-3 0  9990,2 45229  53.0554  63.0498 0001765  94.7927 265.3263 15.06422561309228
STARLINK-1227,45230,53.0555,0.0001346,15.0641498,546.2335010399966,548.097792512508,1 45230U 20012BE  25260.66298015  .00002757  00000+0  20385-3 0  9992,2 45230  53.0555  63.3631 0001346  93.0478 267.0665 15.06414980309334
STARLINK-1238,45233,53.0385,0.0001202,15.95485155,286.1617491606612,287.7640391752193,1 45233U 20012BH  25261.25011574  .00472767  10173-3  11651-2 0  9997,2 45233  53.0385  29.6801 0001202 338.0974 152.9846 15.95485155  5905
STARLINK-1246,45235,53.0543,0.0001337,15.06396454,546.2965053836306,548.1483464941257,1 45235U 20012BK  25260.87679180 -.00000407  00000+0 -84110-5 0  9996,2 45235  53.0543 102.4042 0001337  88.9379 271.1764 15.06396454308813
STARLINK-1247,45236,53.0423,7.4e-05,15.94202453,290.0441112607368,291.03107510052723,1 45236U 20012BL  25261.25011574  .00395471  72605-4  10453-2 0  9994,2 45236  53.0423   9.6295 0000740 314.5139 179.1825 15.94202453  5785
STARLINK-1270,45237,53.0544,0.0001262,15.06401544,546.3328474138807,548.0808041955124,1 45237U 20012BM  25260.68142608  .00000037  00000+0  21353-4 0  9993,2 45237  53.0544  63.2818 0001262  89.9415 270.1718 15.06401544309322
STARLINK-1279,45360,53.0545,0.0001456,15.06400793,546.2007971123921,548.2174579047214,1 45360U 20019A   25261.23708496 -.00001269  00000+0 -66319-4 0  9993,2 45360  53.0545 190.7873 0001456  92.9737 267.1419 15.06400793304147
STARLINK-1301,45361,53.0574,0.0001698,15.06399701,546.0365499896243,548.388398671108,1 45361U 20019B   25261.02606423  .00000406  00000+0  46164-4 0  9994,2 45361  53.0574 201.7356 0001698  83.7380 276.3803 15.06399701303985
STARLINK-1306,45362,53.0498,0.0008873,15.55378252,395.03814475270883,407.06849589515696,1 45362U 20019C   25261.27225096  .00146624  00000+0  20837-2 0  9995,2 45362  53.0498 205.0955 0008873  70.7842 289.4128 15.55378252303958
STARLINK-1262,45366,53.054,0.0001521,15.06407292,546.1358669822675,548.2425512150749,1 45366U 20019G   25261.05739706  .00001623  00000+0  12779-3 0  9999,2 45366  53.0540 221.5936 0001521  81.8454 278.2708 15.06407292303714
STARLINK-1273,45367,53.0524,8.74e-05,15.06391586,546.6320680386516,547.8426234742901,1 45367U 20019H   25260.28335985  .00002886  00000+0  21258-3 0  9999,2 45367  53.0524 225.0716 0000874  94.4988 265.6101 15.06391586303595
STARLINK-1276,45368,53.0541,0.0002083,15.06403094,545.7595271607424,548.6446234195082,1 45368U 20019J   25261.05002393 -.00001990  00000+0 -11472-3 0  9994,2 45368  53.0541 221.6298 0002083  90.0628 270.0600 15.06403094303715
STARLINK-1277,45369,53.0553,0.0001613,15.06400609,546.0926330202892,548.3267498629484,1 45369U 20019K   25261.04272598  .00000200  00000+0  32300-4 0  9995,2 45369  53.0553 222.2910 0001613  87.8913 272.2261 15.06400609303701
STARLINK-1281,45370,53.053,0.00017,15.06400439,546.0329034407123,548.3875214929512,1 45370U 20019L   25261.03896690 -.00001783  00000+0 -10081-3 0  9991,2 45370  53.0530 221.6800 0001700  82.1710 277.9472 15.06400439303717
STARLINK-1300,45374,53.0546,0.0001409,15.06392049,546.2601416699335,548.2117117606831,1 45374U 20019Q   25261.06108312  .00000088  00000+0  24819-4 0  9995,2 45374  53.0546 221.5771 0001409  97.3515 262.7634 15.06392049303710
STARLINK-1302,45375,53.0548,0.000138,15.06400446,546.2544931004904,548.1658889252103,1 45375U 20019R   25261.27486389  .00000635  00000+0  61507-4 0  9995,2 45375  53.0548 220.6213 0001380  78.9611 281.1533 15.06400446303741
STARLINK-1304,45376,53.0525,8.91e-05,15.06394667,546.6108528505611,547.8449528762512,1 45376U 20019S   25259.63462042 -.00000309  00000+0 -18995-5 0  9997,2 45376  53.0525 227.9848 0000891  97.1600 262.9490 15.06394667303496
STARLINK-1305,45377,53.0529,0.0001718,15.06405732,546.0042183754185,548.3837621036655,1 45377U 20019T   25261.05371359  .00001586  00000+0  12536-3 0  9996,2 45377  53.0529 221.6100 0001718  88.6405 271.4780 15.06405732303718
STARLINK-1319,45379,53.051,0.0002028,15.06348582,545.9646585378896,548.7736438328102,1 45379U 20019V   25261.04635719  .00021027  00000+0  14283-2 0  9992,2 45379  53.0510 221.6443 0002028  93.4621 266.6600 15.06348582303715
STARLINK-1258,45381,53.0431,0.0005417,15.98974748,273.6568842049046,280.8673436049103,1 45381U 20019X   25261.25011574  .00388673  74471-4  78938-3 0  9994,2 45381  53.0431 147.4481 0005417 142.6112  22.1984 15.98974748  6062
STARLINK-1266,45383,53.0549,0.0001636,15.06403457,546.0679774607324,548.3339480421455,1 45383U 20019Z   25261.04818952  .00000513  00000+0  53350-4 0  9996,2 45383  53.0549 201.6394 0001636  81.1488 278.9686 15.06403457303986
STARLINK-1267,45384,53.0567,0.0001751,15.06397167,546.0076106360139,548.4328707417035,1 45384U 20019AA  25261.03352481 -.00000743  00000+0 -30954-4 0  9998,2 45384  53.0567 202.3574 0001751  82.0268 278.0920 15.06397167303970
STARLINK-1272,45386,53.0544,0.0001527,15.06396418,546.1650338729405,548.2800386753179,1 45386U 20019AC  25261.04081291  .00000376  00000+0  44128-4 0  9997,2 45386  53.0544 201.6720 0001527  88.0887 272.0277 15.06396418303984
STARLINK-1274,45387,53.0362,0.0008053,15.24475939,486.8267280494865,497.8923497750584,1 45387U 20019AD  25261.18661455  .00056626  00000+0  22696-2 0  9992,2 45387  53.0362 192.5160 0008053  59.8161 300.3632 15.24475939304124
STARLINK-1280,45388,53.0547,0.0001127,15.06398817,546.434696474169,547.9956708563668,1 45388U 20019AE  25261.03159111 -.00000047  00000+0  15719-4 0  9995,2 45388  53.0547 221.7130 0001127  89.4156 270.6962 15.06398817303695
STARLINK-1283,45389,53.0547,0.0001232,15.06383295,546.4095475804097,548.1159660804933,1 45389U 20019AF  25261.21035886  .00001965  00000+0  15080-3 0  9997,2 45389  53.0547 200.9092 0001232  95.4434 264.6695 15.06383295304012
STARLINK-1284,45390,53.0564,0.0001646,15.0640194,546.0657007301161,548.3455235180263,1 45390U 20019AG  25260.98551755  .00000188  00000+0  31497-4 0  9997,2 45390  53.0564 201.9197 0001646  88.5302 271.5875 15.06401940303975
STARLINK-1292,45394,53.0506,0.0005222,15.71615107,350.7649028068254,357.79623971825185,1 45394U 20019AL  25261.25011574  .00224265  00000+0  16674-2 0  9994,2 45394  53.0506 174.3400 0005222 127.8237 258.1484 15.71615107  5917
STARLINK-1297,45395,53.0527,0.0002251,15.06369713,545.7454679307148,548.8633016421454,1 45395U 20019AM  25261.02237831  .00002806  00000+0  20737-3 0  9997,2 45395  53.0527 201.7533 0002251 121.2217 238.8993 15.06369713303163
STARLINK-1307,45397,53.0561,0.0001534,15.06397121,546.1580318503302,548.2827314950282,1 45397U 20019AP  25261.21405263 -.00000706  00000+0 -28524-4 0  9998,2 45397  53.0561 200.8934 0001534 102.3923 257.7238 15.06397121303835
STARLINK-1312,45398,53.0496,0.0011363,15.6944651,352.8237719511708,368.13795490760094,1 45398U 20019AQ  25261.25011574  .00215792  00000+0  17538-2 0  9993,2 45398  53.0496 173.7173 0011363  72.5487 196.7295 15.69446510  6000
STARLINK-1255,45399,53.0538,0.0001519,15.06396458,546.1704515844694,548.2743757743465,1 45399U 20019AR  25261.18180406  .00000978  00000+0  84585-4 0  9993,2 45399  53.0538 191.0390 0001519  97.7998 262.3163 15.06396458303954
STARLINK-1259,45403,53.0481,0.0010335,15.81624858,318.9166463243173,332.7737775563983,1 45403U 20019AV  25261.25011574  .00185241  00000+0  88764-3 0  9995,2 45403  53.0481 156.0050 0010335  75.8132  90.6479 15.81624858  5833
STARLINK-1260,45404,53.0532,0.0001607,15.06422051,546.0310829708242,548.2568682763886,1 45404U 20019AW  25261.21496959 -.00004901  00000+0 -31017-3 0  9990,2 45404  53.0532 190.8890 0001607  95.1500 264.9673 15.06422051303869
STARLINK-1263,45405,53.0555,0.0001064,15.06396693,546.484835270543,547.9585516005063,1 45405U 20019AX  25261.00117835  .00000187  00000+0  31466-4 0  9990,2 45405  53.0555 191.8508 0001064  68.7042 291.4060 15.06396693303830
STARLINK-1265,45406,53.0544,0.0001672,15.06405669,546.0362679503987,548.352098698102,1 45406U 20019AY  25261.20759798 -.00000203  00000+0  52837-5 0  9999,2 45406  53.0544 190.9247 0001672  98.3610 261.7569 15.06405669303865
STARLINK-1278,45408,53.0496,0.0001523,15.06397277,546.1651716972538,548.2746354100773,1 45408U 20019BA  25261.03528187 -.00001576  00000+0 -86900-4 0  9990,2 45408  53.0496 221.6936 0001523  91.4602 268.6561 15.06397277303425
STARLINK-1296,45412,53.0555,0.0001783,15.06398309,545.9819500426256,548.4515311865289,1 45412U 20019BE  25261.01224705 -.00000003  00000+0  18677-4 0  9991,2 45412  53.0555 191.8011 0001783  99.6584 260.4606 15.06398309303837
